{
 "generated_at": "2026-07-14T07:10:30Z",
 "sources": [
  {
   "name": "CelesTrak",
   "url": "https://celestrak.org/NORAD/elements/",
   "license": "frei verfügbar; Attribution. Ursprünglich USSPACECOM/Space-Track."
  },
  {
   "name": "GCAT (J. McDowell, planet4589.org)",
   "url": "https://planet4589.org/space/gcat/",
   "license": "CC-BY 4.0"
  }
 ],
 "satellites": [
  {
   "norad": 28376,
   "name": "AURA",
   "intl": "2004-026A",
   "group": "resource",
   "gcat": {
    "class": "C",
    "category": "EOSCI",
    "owner": "GSFC",
    "state": "US"
   },
   "omm": {
    "OBJECT_NAME": "AURA",
    "OBJECT_ID": "2004-026A",
    "EPOCH": "2026-07-13T21:28:47.174880",
    "MEAN_MOTION": 14.61366746,
    "ECCENTRICITY": 0.0001291,
    "INCLINATION": 98.343,
    "RA_OF_ASC_NODE": 151.5721,
    "ARG_OF_PERICENTER": 92.5478,
    "MEAN_ANOMALY": 267.587,
    "EPHEMERIS_TYPE": 0,
    "CLASSIFICATION_TYPE": "U",
    "NORAD_CAT_ID": 28376,
    "ELEMENT_SET_NO": 999,
    "REV_AT_EPOCH": 17011,
    "BSTAR": 0.000084657,
    "MEAN_MOTION_DOT": 0.0000037,
    "MEAN_MOTION_DDOT": 0
   }
  },
  {
   "norad": 63772,
   "name": "BIOMASS",
   "intl": "2025-090A",
   "group": "resource",
   "gcat": {
    "class": "C",
    "category": "EOSCI",
    "owner": "ESA",
    "state": "I-ESA"
   },
   "omm": {
    "OBJECT_NAME": "BIOMASS",
    "OBJECT_ID": "2025-090A",
    "EPOCH": "2026-07-13T11:46:56.101440",
    "MEAN_MOTION": 14.67536921,
    "ECCENTRICITY": 0.00014363,
    "INCLINATION": 98.075,
    "RA_OF_ASC_NODE": 21.4211,
    "ARG_OF_PERICENTER": 96.7848,
    "MEAN_ANOMALY": 263.352,
    "EPHEMERIS_TYPE": 0,
    "CLASSIFICATION_TYPE": "U",
    "NORAD_CAT_ID": 63772,
    "ELEMENT_SET_NO": 999,
    "REV_AT_EPOCH": 6454,
    "BSTAR": 0.00010320661,
    "MEAN_MOTION_DOT": 0.00000537,
    "MEAN_MOTION_DDOT": 0
   }
  },
  {
   "norad": 57693,
   "name": "CAPELLA-11 (ACADIA-1)",
   "intl": "2023-126A",
   "group": "sar",
   "gcat": {
    "class": "B",
    "category": "IMG-R",
    "owner": "CAPSP",
    "state": "US"
   },
   "omm": {
    "OBJECT_NAME": "CAPELLA-11 (ACADIA-1)",
    "OBJECT_ID": "2023-126A",
    "EPOCH": "2026-07-13T02:25:45.090048",
    "MEAN_MOTION": 14.84908624,
    "ECCENTRICITY": 0.000212,
    "INCLINATION": 53.0082,
    "RA_OF_ASC_NODE": 72.394,
    "ARG_OF_PERICENTER": 123.6112,
    "MEAN_ANOMALY": 236.507,
    "EPHEMERIS_TYPE": 0,
    "CLASSIFICATION_TYPE": "U",
    "NORAD_CAT_ID": 57693,
    "ELEMENT_SET_NO": 999,
    "REV_AT_EPOCH": 15597,
    "BSTAR": 0.00028325,
    "MEAN_MOTION_DOT": 0.00002203,
    "MEAN_MOTION_DDOT": 0
   }
  },
  {
   "norad": 60419,
   "name": "CAPELLA-13 (ACADIA-3)",
   "intl": "2024-142A",
   "group": "sar",
   "gcat": {
    "class": "B",
    "category": "IMG-R",
    "owner": "CAPSP",
    "state": "US"
   },
   "omm": {
    "OBJECT_NAME": "CAPELLA-13 (ACADIA-3)",
    "OBJECT_ID": "2024-142A",
    "EPOCH": "2026-07-13T16:52:54.651648",
    "MEAN_MOTION": 14.87654542,
    "ECCENTRICITY": 0.0001344,
    "INCLINATION": 53.0057,
    "RA_OF_ASC_NODE": 301.8247,
    "ARG_OF_PERICENTER": 91.2779,
    "MEAN_ANOMALY": 268.8355,
    "EPHEMERIS_TYPE": 0,
    "CLASSIFICATION_TYPE": "U",
    "NORAD_CAT_ID": 60419,
    "ELEMENT_SET_NO": 999,
    "REV_AT_EPOCH": 10435,
    "BSTAR": 0.00027894,
    "MEAN_MOTION_DOT": 0.00002327,
    "MEAN_MOTION_DDOT": 0
   }
  },
  {
   "norad": 59444,
   "name": "CAPELLA-14 (ACADIA-4)",
   "intl": "2024-066C",
   "group": "sar",
   "gcat": {
    "class": "B",
    "category": "IMG-R",
    "owner": "CAPSP",
    "state": "US"
   },
   "omm": {
    "OBJECT_NAME": "CAPELLA-14 (ACADIA-4)",
    "OBJECT_ID": "2024-066C",
    "EPOCH": "2026-07-13T05:57:27.324288",
    "MEAN_MOTION": 15.08425491,
    "ECCENTRICITY": 0.0000749,
    "INCLINATION": 45.6044,
    "RA_OF_ASC_NODE": 118.0658,
    "ARG_OF_PERICENTER": 18.4375,
    "MEAN_ANOMALY": 341.6537,
    "EPHEMERIS_TYPE": 0,
    "CLASSIFICATION_TYPE": "U",
    "NORAD_CAT_ID": 59444,
    "ELEMENT_SET_NO": 999,
    "REV_AT_EPOCH": 11642,
    "BSTAR": 0.00045541,
    "MEAN_MOTION_DOT": 0.00006954,
    "MEAN_MOTION_DDOT": 0
   }
  },
  {
   "norad": 60544,
   "name": "CAPELLA-15 (ACADIA-5)",
   "intl": "2024-149CE",
   "group": "sar",
   "gcat": {
    "class": "B",
    "category": "IMG-R",
    "owner": "CAPSP",
    "state": "US"
   },
   "omm": {
    "OBJECT_NAME": "CAPELLA-15 (ACADIA-5)",
    "OBJECT_ID": "2024-149CE",
    "EPOCH": "2026-07-13T19:21:10.978848",
    "MEAN_MOTION": 14.92406856,
    "ECCENTRICITY": 0.000454,
    "INCLINATION": 97.6722,
    "RA_OF_ASC_NODE": 267.0506,
    "ARG_OF_PERICENTER": 1.1671,
    "MEAN_ANOMALY": 358.9559,
    "EPHEMERIS_TYPE": 0,
    "CLASSIFICATION_TYPE": "U",
    "NORAD_CAT_ID": 60544,
    "ELEMENT_SET_NO": 999,
    "REV_AT_EPOCH": 10382,
    "BSTAR": 0.00022368,
    "MEAN_MOTION_DOT": 0.00002236,
    "MEAN_MOTION_DDOT": 0
   }
  },
  {
   "norad": 65318,
   "name": "CAPELLA-16 (ACADIA-6)",
   "intl": "2025-188D",
   "group": "sar",
   "gcat": {
    "class": "B",
    "category": "IMG-R",
    "owner": "CAPSP",
    "state": "US"
   },
   "omm": {
    "OBJECT_NAME": "CAPELLA-16 (ACADIA-6)",
    "OBJECT_ID": "2025-188D",
    "EPOCH": "2026-07-13T17:56:44.367072",
    "MEAN_MOTION": 14.94038741,
    "ECCENTRICITY": 0.0005668,
    "INCLINATION": 97.7379,
    "RA_OF_ASC_NODE": 269.5013,
    "ARG_OF_PERICENTER": 140.3512,
    "MEAN_ANOMALY": 219.8123,
    "EPHEMERIS_TYPE": 0,
    "CLASSIFICATION_TYPE": "U",
    "NORAD_CAT_ID": 65318,
    "ELEMENT_SET_NO": 999,
    "REV_AT_EPOCH": 4788,
    "BSTAR": 0.00033874,
    "MEAN_MOTION_DOT": 0.00003559,
    "MEAN_MOTION_DDOT": 0
   }
  },
  {
   "norad": 64583,
   "name": "CAPELLA-17 (ACADIA-7)",
   "intl": "2025-135BH",
   "group": "sar",
   "gcat": {
    "class": "B",
    "category": "IMG-R",
    "owner": "CAPSP",
    "state": "US"
   },
   "omm": {
    "OBJECT_NAME": "CAPELLA-17 (ACADIA-7)",
    "OBJECT_ID": "2025-135BH",
    "EPOCH": "2026-07-13T20:06:35.295264",
    "MEAN_MOTION": 14.91611381,
    "ECCENTRICITY": 0.0004053,
    "INCLINATION": 97.7707,
    "RA_OF_ASC_NODE": 308.0665,
    "ARG_OF_PERICENTER": 255.8212,
    "MEAN_ANOMALY": 104.2557,
    "EPHEMERIS_TYPE": 0,
    "CLASSIFICATION_TYPE": "U",
    "NORAD_CAT_ID": 64583,
    "ELEMENT_SET_NO": 999,
    "REV_AT_EPOCH": 5782,
    "BSTAR": 0.00031388,
    "MEAN_MOTION_DOT": 0.00003095,
    "MEAN_MOTION_DDOT": 0
   }
  },
  {
   "norad": 67385,
   "name": "CAPELLA-18 (ACADIA-8)",
   "intl": "2026-004Y",
   "group": "sar",
   "gcat": {
    "class": "B",
    "category": "IMG-R",
    "owner": "CAPSP",
    "state": "US"
   },
   "omm": {
    "OBJECT_NAME": "CAPELLA-18 (ACADIA-8)",
    "OBJECT_ID": "2026-004Y",
    "EPOCH": "2026-07-13T20:42:00.624672",
    "MEAN_MOTION": 14.86642766,
    "ECCENTRICITY": 0.0001237,
    "INCLINATION": 97.8029,
    "RA_OF_ASC_NODE": 192.906,
    "ARG_OF_PERICENTER": 122.6369,
    "MEAN_ANOMALY": 237.4966,
    "EPHEMERIS_TYPE": 0,
    "CLASSIFICATION_TYPE": "U",
    "NORAD_CAT_ID": 67385,
    "ELEMENT_SET_NO": 999,
    "REV_AT_EPOCH": 2724,
    "BSTAR": 0.000074785,
    "MEAN_MOTION_DOT": 0.0000061,
    "MEAN_MOTION_DDOT": 0
   }
  },
  {
   "norad": 67384,
   "name": "CAPELLA-19 (ACADIA-9)",
   "intl": "2026-004X",
   "group": "sar",
   "gcat": {
    "class": "B",
    "category": "IMG-R",
    "owner": "CAPSP",
    "state": "US"
   },
   "omm": {
    "OBJECT_NAME": "CAPELLA-19 (ACADIA-9)",
    "OBJECT_ID": "2026-004X",
    "EPOCH": "2026-07-13T20:27:32.330592",
    "MEAN_MOTION": 14.86654776,
    "ECCENTRICITY": 0.0001597,
    "INCLINATION": 97.8003,
    "RA_OF_ASC_NODE": 192.7444,
    "ARG_OF_PERICENTER": 95.751,
    "MEAN_ANOMALY": 264.3888,
    "EPHEMERIS_TYPE": 0,
    "CLASSIFICATION_TYPE": "U",
    "NORAD_CAT_ID": 67384,
    "ELEMENT_SET_NO": 999,
    "REV_AT_EPOCH": 2723,
    "BSTAR": 0.00030011,
    "MEAN_MOTION_DOT": 0.00002611,
    "MEAN_MOTION_DDOT": 0
   }
  }
 ]
}
